NORAD_CAT_ID,OBJECT_NAME,OBJECT_TYPE,EPOCH,MEAN_MOTION,ECCENTRICITY,INCLINATION,RA_OF_ASC_NODE,ARG_OF_PERICENTER,MEAN_ANOMALY,BSTAR,MEAN_MOTION_DOT,MEAN_MOTION_DDOT,TLE_LINE0,TLE_LINE1,TLE_LINE2,SEMIMAJOR_AXIS,PERIOD,APOGEE,PERIGEE,DECAYED
52659.0,STARLINK-3960,PAYLOAD,2023-09-03 08:14:38,15.08848914,0.0001427,53.2167,316.7376,89.5179,270.5977,2.4722e-05,1.06e-06,0.0,0 STARLINK-3960,1 52659U 22053D   23246.34349926  .00000106  00000-0  24722-4 0  9994,2 52659  53.2167 316.7376 0001427  89.5179 270.5977 15.08848914 72597,6917.853,95.437,540.705,538.731,0.0
52659.0,STARLINK-3960,PAYLOAD,2023-09-04 11:16:13,15.08821637,5.62e-05,53.2171,311.6821,90.3397,269.7659,-0.00010728,-1.994e-05,0.0,0 STARLINK-3960,1 52659U 22053D   23247.46960158 -.00001994  00000-0 -10728-3 0  9992,2 52659  53.2171 311.6821 0000562  90.3397 269.7659 15.08821637 72761,6917.937,95.439,540.19,539.413,0.0
52659.0,STARLINK-3960,PAYLOAD,2023-09-05 04:45:27,15.08834269,0.0001248,53.2175,308.4098,97.9281,262.1853,-4.4539e-05,-9.97e-06,0.0,0 STARLINK-3960,1 52659U 22053D   23248.19823721 -.00000997  00000-0 -44539-4 0  9997,2 52659  53.2175 308.4098 0001248  97.9281 262.1853 15.08834269 72872,6917.898,95.438,540.626,538.9,0.0
52659.0,STARLINK-3960,PAYLOAD,2023-09-06 04:36:14,15.08830744,0.0001162,53.2179,303.9508,98.3798,261.7326,0.00018884,2.718e-05,0.0,0 STARLINK-3960,1 52659U 22053D   23249.19183668  .00002718  00000-0  18884-3 0  9991,2 52659  53.2179 303.9508 0001162  98.3798 261.7326 15.08830744 73016,6917.909,95.438,540.578,538.97,0.0
52659.0,STARLINK-3960,PAYLOAD,2023-09-06 20:30:05,15.08839251,0.0001131,53.2172,300.9771,97.0515,263.0606,0.00019092,2.752e-05,0.0,0 STARLINK-3960,1 52659U 22053D   23249.85423411  .00002752  00000-0  19092-3 0  9997,2 52659  53.2172 300.9771 0001131  97.0515 263.0606 15.08839251 73116,6917.883,95.438,540.53,538.965,0.0
52659.0,STARLINK-3960,PAYLOAD,2023-09-07 02:51:38,15.08841751,0.0001337,53.2183,299.7895,91.0452,269.0694,9.4328e-05,1.214e-05,0.0,0 STARLINK-3960,1 52659U 22053D   23250.11919668  .00001214  00000-0  94328-4 0  9990,2 52659  53.2183 299.7895 0001337  91.0452 269.0694 15.08841751 73168,6917.875,95.437,540.665,538.815,0.0
52659.0,STARLINK-3960,PAYLOAD,2023-09-07 12:23:57,15.08838507,0.0001548,53.2187,298.0049,94.3487,265.7682,6.2393e-05,7.05e-06,0.0,0 STARLINK-3960,1 52659U 22053D   23250.51664052  .00000705  00000-0  62393-4 0  9999,2 52659  53.2187 298.0049 0001548  94.3487 265.7682 15.08838507 73214,6917.885,95.438,540.821,538.679,0.0
52659.0,STARLINK-3960,PAYLOAD,2023-09-08 10:39:21,15.08835243,0.000138,53.2173,293.8415,88.4093,271.7057,0.0002123,3.092e-05,0.0,0 STARLINK-3960,1 52659U 22053D   23251.44399670  .00003092  00000-0  21230-3 0  9999,2 52659  53.2173 293.8415 0001380  88.4093 271.7057 15.08835243 73363,6917.895,95.438,540.715,538.805,0.0
52659.0,STARLINK-3960,PAYLOAD,2023-09-08 20:11:40,15.08839607,0.0001308,53.217,292.0564,83.0174,277.0967,8.7841e-05,1.11e-05,0.0,0 STARLINK-3960,1 52659U 22053D   23251.84143580  .00001110  00000-0  87841-4 0  9990,2 52659  53.2170 292.0564 0001308  83.0174 277.0967 15.08839607 73410,6917.882,95.438,540.651,538.842,0.0
52659.0,STARLINK-3960,PAYLOAD,2023-09-09 08:54:45,15.08837899,0.0001301,53.2166,289.6769,84.8242,275.2899,4.3996e-05,4.12e-06,0.0,0 STARLINK-3960,1 52659U 22053D   23252.37135891  .00000412  00000-0  43996-4 0  9992,2 52659  53.2166 289.6769 0001301  84.8242 275.2899 15.08837899 73495,6917.887,95.438,540.652,538.852,0.0
52659.0,STARLINK-3960,PAYLOAD,2023-09-09 23:13:13,15.08842009,0.0001357,53.2165,286.9998,94.0383,266.0764,5.9715e-05,6.63e-06,0.0,0 STARLINK-3960,1 52659U 22053D   23252.96751576  .00000663  00000-0  59715-4 0  9995,2 52659  53.2165 286.9998 0001357  94.0383 266.0764 15.08842009 73597,6917.874,95.437,540.678,538.8,0.0
52659.0,STARLINK-3960,PAYLOAD,2023-09-10 11:56:17,15.08851766,0.0001381,53.2164,284.6205,102.1622,257.9525,2.3909e-05,9.3e-07,0.0,0 STARLINK-3960,1 52659U 22053D   23253.49742927  .00000093  00000-0  23909-4 0  9997,2 52659  53.2164 284.6205 0001381 102.1622 257.9525 15.08851766 73668,6917.844,95.437,540.665,538.754,0.0
52659.0,STARLINK-3960,PAYLOAD,2023-09-10 23:04:00,15.08836846,0.000144,53.2159,282.538,94.4259,265.6897,5.0842e-05,5.21e-06,0.0,0 STARLINK-3960,1 52659U 22053D   23253.96111814  .00000521  00000-0  50842-4 0  9996,2 52659  53.2159 282.5380 0001440  94.4259 265.6897 15.08836846 73747,6917.89,95.438,540.751,538.759,0.0
52659.0,STARLINK-3960,PAYLOAD,2023-09-11 11:47:05,15.0883667,0.0001436,53.2162,280.1593,95.4246,264.691,3.078e-05,2.02e-06,0.0,0 STARLINK-3960,1 52659U 22053D   23254.49103996  .00000202  00000-0  30780-4 0  9992,2 52659  53.2162 280.1593 0001436  95.4246 264.6910 15.08836670 73811,6917.891,95.438,540.749,538.762,0.0
52659.0,STARLINK-3960,PAYLOAD,2023-09-12 02:05:33,15.08840346,0.0001415,53.216,277.4832,95.8652,264.2501,1.8297e-05,3e-08,0.0,0 STARLINK-3960,1 52659U 22053D   23255.08719828  .00000003  00000-0  18297-4 0  9993,2 52659  53.2160 277.4832 0001415  95.8652 264.2501 15.08840346 73914,6917.879,95.438,540.723,538.765,0.0
52659.0,STARLINK-3960,PAYLOAD,2023-09-12 08:27:06,15.08842846,0.0001401,53.216,276.2936,95.2947,264.8205,3.8268e-05,3.21e-06,0.0,0 STARLINK-3960,1 52659U 22053D   23255.35215587  .00000321  00000-0  38268-4 0  9999,2 52659  53.2160 276.2936 0001401  95.2947 264.8205 15.08842846 73949,6917.872,95.437,540.706,538.767,0.0
52659.0,STARLINK-3960,PAYLOAD,2023-09-12 17:59:25,15.08841824,0.0001388,53.2159,274.5092,94.8195,265.2955,3.2391e-05,2.28e-06,0.0,0 STARLINK-3960,1 52659U 22053D   23255.74959651  .00000228  00000-0  32391-4 0  9996,2 52659  53.2159 274.5092 0001388  94.8195 265.2955 15.08841824 74005,6917.875,95.437,540.7,538.78,0.0
52659.0,STARLINK-3960,PAYLOAD,2023-09-13 08:17:53,15.08843545,0.0001415,53.2161,271.8342,95.6416,264.4737,0.00013263,1.824e-05,0.0,0 STARLINK-3960,1 52659U 22053D   23256.34575374  .00001824  00000-0  13263-3 0  9998,2 52659  53.2161 271.8342 0001415  95.6416 264.4737 15.08843545 74104,6917.87,95.437,540.713,538.756,0.0
52659.0,STARLINK-3960,PAYLOAD,2023-09-13 17:50:12,15.0884,0.0001537,53.2162,270.0496,84.1785,275.9382,7.414e-05,8.92e-06,0.0,0 STARLINK-3960,1 52659U 22053D   23256.74319820  .00000892  00000-0  74140-4 0  9990,2 52659  53.2162 270.0496 0001537  84.1785 275.9382 15.08840000 74165,6917.88,95.438,540.809,538.682,0.0
52659.0,STARLINK-3960,PAYLOAD,2023-09-14 01:47:09,15.08824624,0.000145,53.2164,268.5636,90.4382,269.6776,-7.6721e-05,-1.508e-05,0.0,0 STARLINK-3960,1 52659U 22053D   23257.07441361 -.00001508  00000-0 -76721-4 0  9997,2 52659  53.2164 268.5636 0001450  90.4382 269.6776 15.08824624 74219,6917.927,95.439,540.795,538.789,0.0
52659.0,STARLINK-3960,PAYLOAD,2023-09-14 09:44:04,15.0882797,0.0001436,53.2166,267.0771,92.0598,268.0559,-4.2687e-05,-9.67e-06,0.0,0 STARLINK-3960,1 52659U 22053D   23257.40561323 -.00000967  00000-0 -42687-4 0  9997,2 52659  53.2166 267.0771 0001436  92.0598 268.0559 15.08827970 74259,6917.917,95.438,540.776,538.789,0.0
52659.0,STARLINK-3960,PAYLOAD,2023-09-15 01:37:56,15.08836207,0.0001478,53.2174,264.103,92.2953,267.8209,2.285e-05,7.6e-07,0.0,0 STARLINK-3960,1 52659U 22053D   23258.06800975  .00000076  00000-0  22850-4 0  9998,2 52659  53.2174 264.1030 0001478  92.2953 267.8209 15.08836207 74361,6917.892,95.438,540.779,538.735,0.0
52659.0,STARLINK-3960,PAYLOAD,2023-09-15 07:59:28,15.088472,0.0001379,53.2169,262.9135,90.9262,269.1889,4.7563e-05,4.69e-06,0.0,0 STARLINK-3960,1 52659U 22053D   23258.33296368  .00000469  00000-0  47563-4 0  9997,2 52659  53.2169 262.9135 0001379  90.9262 269.1889 15.08847200 74404,6917.858,95.437,540.677,538.769,0.0
52659.0,STARLINK-3960,PAYLOAD,2023-09-16 01:28:42,15.08840699,0.0001416,53.2157,259.6431,88.672,271.4434,0.00034652,5.231e-05,0.0,0 STARLINK-3960,1 52659U 22053D   23259.06160866  .00005231  00000-0  34652-3 0  9997,2 52659  53.2157 259.6431 0001416  88.6720 271.4434 15.08840699 74517,6917.878,95.438,540.723,538.764,0.0
52659.0,STARLINK-3960,PAYLOAD,2023-09-16 07:50:15,15.08853024,0.0001432,53.2154,258.4536,88.664,271.4516,0.00048822,7.493e-05,0.0,0 STARLINK-3960,1 52659U 22053D   23259.32656504  .00007493  00000-0  48822-3 0  9991,2 52659  53.2154 258.4536 0001432  88.6640 271.4516 15.08853024 74546,6917.841,95.437,540.696,538.715,0.0
52659.0,STARLINK-3960,PAYLOAD,2023-09-17 09:16:25,15.08845403,0.0001589,53.2159,253.6954,80.4742,279.643,0.00011589,1.557e-05,0.0,0 STARLINK-3960,1 52659U 22053D   23260.38640725  .00001557  00000-0  11589-3 0  9992,2 52659  53.2159 253.6954 0001589  80.4742 279.6430 15.08845403 74703,6917.864,95.437,540.828,538.63,0.0
52659.0,STARLINK-3960,PAYLOAD,2023-09-18 09:07:12,15.08836454,0.0001657,53.2164,249.2321,97.0683,263.0497,0.00053363,8.214e-05,0.0,0 STARLINK-3960,1 52659U 22053D   23261.38001026  .00008214  00000-0  53363-3 0  9991,2 52659  53.2164 249.2321 0001657  97.0683 263.0497 15.08836454 74865,6917.891,95.438,540.903,538.61,0.0
52659.0,STARLINK-3960,PAYLOAD,2023-09-20 02:27:14,15.08833127,0.0001546,53.2169,241.5017,97.0031,263.1137,-9.2045e-05,-1.752e-05,0.0,0 STARLINK-3960,1 52659U 22053D   23263.10224886 -.00001752  00000-0 -92045-4 0  9997,2 52659  53.2169 241.5017 0001546  97.0031 263.1137 15.08833127 75127,6917.901,95.438,540.836,538.697,0.0
52659.0,STARLINK-3960,PAYLOAD,2023-09-20 08:48:46,15.08834674,0.0001468,53.216,240.3117,86.1301,273.9859,-6.7709e-05,-1.365e-05,0.0,0 STARLINK-3960,1 52659U 22053D   23263.36720915 -.00001365  00000-0 -67709-4 0  9998,2 52659  53.2160 240.3117 0001468  86.1301 273.9859 15.08834674 75159,6917.897,95.438,540.777,538.746,0.0
52659.0,STARLINK-3960,PAYLOAD,2023-09-20 15:10:19,15.08832811,0.0001517,53.2175,239.1223,85.8856,274.231,-2.5934e-05,-7.01e-06,0.0,0 STARLINK-3960,1 52659U 22053D   23263.63217536 -.00000701  00000-0 -25934-4 0  9995,2 52659  53.2175 239.1223 0001517  85.8856 274.2310 15.08832811 75196,6917.902,95.438,540.817,538.718,0.0
